STARLINK-37128          
1 68385U 26063F   26092.75002315 -.01759455  92081-3 -37773-2 0  9999
2 68385  97.2831 233.5440 0001616  74.3986  79.7580 15.98657525  2274
STARLINK-37198          
1 68386U 26063G   26092.75002315 -.01753101  91586-3 -37378-2 0  9992
2 68386  97.2825 233.5446 0001542  70.5188  85.6578 15.98780711  2327
STARLINK-37223          
1 68387U 26063H   26092.75002315 -.01764094  92813-3 -37321-2 0  9998
2 68387  97.2826 233.5458 0001558  72.4191  86.1565 15.98921873  2322
STARLINK-37203          
1 68388U 26063J   26092.75002315 -.01795699  96121-3 -37681-2 0  9999
2 68388  97.2824 233.5467 0001638  69.2200  91.8635 15.99071903  2327
STARLINK-37197          
1 68389U 26063K   26092.75002315 -.01802740  97118-3 -37283-2 0  9991
2 68389  97.2824 233.5491 0001658  70.4169  95.0063 15.99332269  2321
STARLINK-37193          
1 68390U 26063L   26093.34541731  .00860153  37432-3  13916-2 0  9998
2 68390  97.2818 234.1992 0000418  35.5990 324.5318 16.03541129  1512
STARLINK-37216          
1 68391U 26063M   26092.75002315 -.01776907  94644-3 -36507-2 0  9998
2 68391  97.2823 233.5498 0001529  75.5954  91.9601 15.99447323  2326
STARLINK-37215          
1 68392U 26063N   26092.75002315 -.01794076  96526-3 -36570-2 0  9997
2 68392  97.2820 233.5510 0001488  81.0804  89.0356 15.99590160  2322
STARLINK-37184          
1 68393U 26063P   26092.75002315 -.01822130  99556-3 -36837-2 0  9993
2 68393  97.2823 233.5521 0001597  72.4321 100.2824 15.99739684  2329
STARLINK-37157          
1 68394U 26063Q   26092.75002315 -.01819945  99474-3 -36537-2 0  9990
2 68394  97.2820 233.5526 0001617  66.7918 107.9863 15.99863067  2323
STARLINK-37172          
1 68395U 26063R   26092.75002315 -.01835985  10145-2 -36307-2 0  9995
2 68395  97.2814 233.5544 0001588  73.7100 105.7685 16.00132100  2323
STARLINK-37190          
1 68396U 26063S   26092.75002315 -.01849746  10274-2 -36843-2 0  9994
2 68396  97.2814 233.5533 0001495  73.3323 103.5772 16.00006807  2329
STARLINK-37194          
1 68397U 26063T   26092.75002315 -.01819410  99872-3 -35726-2 0  9991
2 68397  97.2815 233.5554 0001610  65.7478 116.0867 16.00255178  2320
STARLINK-37220          
1 68398U 26063U   26092.75002315 -.02283890  15546-2 -43589-2 0  9991
2 68398  97.2815 233.5577 0002091  66.0397 120.4043 16.00790582  2322
STARLINK-37187          
1 68399U 26063V   26092.75002315 -.01834573  10161-2 -35747-2 0  9996
2 68399  97.2813 233.5566 0001625  66.9644 117.1108 16.00392506  2324
STARLINK-36235          
1 68400U 26063W   26092.75002315 -.01856481  10425-2 -35611-2 0  9994
2 68400  97.2810 233.5586 0001536  80.5141 108.5827 16.00671292  2325
